{
  "norad_id": 64373,
  "name": "STARLINK-11748 [DTC]",
  "history": [
    {
      "epoch": "2026-03-28T17:47:00.892320Z",
      "apogee_km": 358.4385382185901,
      "perigee_km": 353.44454557191966,
      "latitude_deg": 1.3208283271784853e-05,
      "longitude_deg": -122.76088550795409,
      "height_km": 355.07635467029905,
      "semi_major_axis_km": 6734.078541895255,
      "eccentricity": 0.0003708,
      "inclination_deg": 43.0003,
      "raan_deg": 330.1499,
      "arg_perigee_deg": 284.833,
      "mean_anomaly_deg": 75.2127,
      "mean_motion_rev_day": 15.71033681
    }
  ]
}