{"fetched_at":"2026-03-29T16:36:15Z","count":15609,"tles":[{"name":"STARLINK-11748 [DTC]","line1":"1 64373U 25127D   26087.74098255  .00253091  00000+0  19006-2 0  9990","line2":"2 64373  43.0003 330.1499 0003708 284.8330  75.2127 15.71033681 46492","category":"Starlink"}]}